{
  "type": "FeatureCollection",
  "features": [
    {
      "type": "Feature",
      "geometry": {
        "type": "MultiPolygon",
        "coordinates": [
          [
            [
              [
                -95.17814,
                29.9814
              ],
              [
                -95.17997,
                29.98136
              ],
              [
                -95.17995,
                29.98078
              ],
              [
                -95.18363,
                29.97921
              ],
              [
                -95.18704,
                29.97893
              ],
              [
                -95.18706,
                29.98055
              ],
              [
                -95.19049,
                29.98048
              ],
              [
                -95.18973,
                29.98213
              ],
              [
                -95.19048,
                29.98229
              ],
              [
                -95.19131,
                29.98641
              ],
              [
                -95.19004,
                29.98662
              ],
              [
                -95.18993,
                29.98753
              ],
              [
                -95.18747,
                29.98728
              ],
              [
                -95.18884,
                29.98853
              ],
              [
                -95.18765,
                29.98892
              ],
              [
                -95.18804,
                29.98989
              ],
              [
                -95.18115,
                29.99215
              ],
              [
                -95.18079,
                29.99142
              ],
              [
                -95.17832,
                29.99179
              ],
              [
                -95.17834,
                29.99256
              ],
              [
                -95.17718,
                29.99257
              ],
              [
                -95.17609,
                29.99382
              ],
              [
                -95.16523,
                29.99733
              ],
              [
                -95.16467,
                29.99581
              ],
              [
                -95.16196,
                29.99636
              ],
              [
                -95.16173,
                29.98844
              ],
              [
                -95.16285,
                29.98767
              ],
              [
                -95.16351,
                29.98267
              ],
              [
                -95.16552,
                29.98298
              ],
              [
                -95.16598,
                29.98228
              ],
              [
                -95.16913,
                29.98304
              ],
              [
                -95.16943,
                29.98223
              ],
              [
                -95.1758,
                29.98109
              ],
              [
                -95.17815,
                29.98167
              ],
              [
                -95.17805,
                29.98071
              ],
              [
                -95.1689,
                29.98191
              ],
              [
                -95.16888,
                29.97979
              ],
              [
                -95.16521,
                29.97982
              ],
              [
                -95.16913,
                29.97747
              ],
              [
                -95.15973,
                29.97754
              ],
              [
                -95.15711,
                29.97986
              ],
              [
                -95.16361,
                29.97983
              ],
              [
                -95.16362,
                29.98082
              ],
              [
                -95.16123,
                29.98461
              ],
              [
                -95.16144,
                29.98938
              ],
              [
                -95.16027,
                29.99015
              ],
              [
                -95.15867,
                29.99351
              ],
              [
                -95.15999,
                29.99523
              ],
              [
                -95.15974,
                29.99793
              ],
              [
                -95.14989,
                29.9977
              ],
              [
                -95.14996,
                29.99948
              ],
              [
                -95.15257,
                30.00102
              ],
              [
                -95.15306,
                30.0021
              ],
              [
                -95.15041,
                30.00273
              ],
              [
                -95.15158,
                30.00418
              ],
              [
                -95.14827,
                30.00614
              ],
              [
                -95.14777,
                30.00525
              ],
              [
                -95.14352,
                30.00658
              ],
              [
                -95.14407,
                30.00857
              ],
              [
                -95.14249,
                30.00919
              ],
              [
                -95.1384,
                30.00581
              ],
              [
                -95.14018,
                30.0031
              ],
              [
                -95.1415,
                30.0053
              ],
              [
                -95.14216,
                30.00426
              ],
              [
                -95.14091,
                30.00267
              ],
              [
                -95.14163,
                30.00225
              ],
              [
                -95.14574,
                30.00219
              ],
              [
                -95.14572,
                29.9999
              ],
              [
                -95.14191,
                29.99996
              ],
              [
                -95.14168,
                29.99913
              ],
              [
                -95.1431,
                29.99765
              ],
              [
                -95.1417,
                29.99733
              ],
              [
                -95.14053,
                29.99413
              ],
              [
                -95.1412,
                29.99291
              ],
              [
                -95.1461,
                29.99128
              ],
              [
                -95.1461,
                29.99069
              ],
              [
                -95.14547,
                29.98962
              ],
              [
                -95.14217,
                29.98973
              ],
              [
                -95.14032,
                29.98785
              ],
              [
                -95.13732,
                29.98693
              ],
              [
                -95.13533,
                29.98395
              ],
              [
                -95.13919,
                29.98135
              ],
              [
                -95.14192,
                29.98113
              ],
              [
                -95.14219,
                29.97993
              ],
              [
                -95.15672,
                29.97985
              ],
              [
                -95.18345,
                29.95396
              ],
              [
                -95.17721,
                29.954
              ],
              [
                -95.1766,
                29.93504
              ],
              [
                -95.20343,
                29.93449
              ],
              [
                -95.20581,
                29.93214
              ],
              [
                -95.2007,
                29.92788
              ],
              [
                -95.19969,
                29.92592
              ],
              [
                -95.20032,
                29.91749
              ],
              [
                -95.16413,
                29.91755
              ],
              [
                -95.16719,
                29.92155
              ],
              [
                -95.1752,
                29.92908
              ],
              [
                -95.1766,
                29.93164
              ],
              [
                -95.17659,
                29.93475
              ],
              [
                -95.17605,
                29.93476
              ],
              [
                -95.17613,
                29.93066
              ],
              [
                -95.16651,
                29.92212
              ],
              [
                -95.16139,
                29.91505
              ],
              [
                -95.15706,
                29.91052
              ],
              [
                -95.15545,
                29.90671
              ],
              [
                -95.15589,
                29.90203
              ],
              [
                -95.15463,
                29.90108
              ],
              [
                -95.15282,
                29.90146
              ],
              [
                -95.15965,
                29.88597
              ],
              [
                -95.16131,
                29.88445
              ],
              [
                -95.16145,
                29.87691
              ],
              [
                -95.16725,
                29.84827
              ],
              [
                -95.16724,
                29.83882
              ],
              [
                -95.17108,
                29.82836
              ],
              [
                -95.17058,
                29.82826
              ],
              [
                -95.16672,
                29.83855
              ],
              [
                -95.16686,
                29.84852
              ],
              [
                -95.16096,
                29.87639
              ],
              [
                -95.16082,
                29.88443
              ],
              [
                -95.15921,
                29.88577
              ],
              [
                -95.153,
                29.89973
              ],
              [
                -95.15198,
                29.90052
              ],
              [
                -95.15213,
                29.90178
              ],
              [
                -95.14908,
                29.90866
              ],
              [
                -95.14073,
                29.91268
              ],
              [
                -95.1404,
                29.91219
              ],
              [
                -95.1485,
                29.90839
              ],
              [
                -95.15097,
                29.90276
              ],
              [
                -95.13399,
                29.90297
              ],
              [
                -95.13178,
                29.90203
              ],
              [
                -95.12058,
                29.90215
              ],
              [
                -95.12452,
                29.90659
              ],
              [
                -95.12338,
                29.91131
              ],
              [
                -95.12399,
                29.91466
              ],
              [
                -95.12152,
                29.9158
              ],
              [
                -95.1188,
                29.92025
              ],
              [
                -95.11245,
                29.92023
              ],
              [
                -95.11281,
                29.94189
              ],
              [
                -95.13965,
                29.94114
              ],
              [
                -95.1413,
                29.94291
              ],
              [
                -95.13934,
                29.94473
              ],
              [
                -95.14289,
                29.94376
              ],
              [
                -95.14542,
                29.94475
              ],
              [
                -95.14713,
                29.94645
              ],
              [
                -95.14701,
                29.94882
              ],
              [
                -95.14301,
                29.94924
              ],
              [
                -95.14239,
                29.94804
              ],
              [
                -95.14168,
                29.94975
              ],
              [
                -95.13935,
                29.95028
              ],
              [
                -95.1373,
                29.95208
              ],
              [
                -95.13678,
                29.95494
              ],
              [
                -95.13498,
                29.95513
              ],
              [
                -95.13371,
                29.9543
              ],
              [
                -95.13629,
                29.95588
              ],
              [
                -95.11804,
                29.95618
              ],
              [
                -95.11435,
                29.96583
              ],
              [
                -95.12528,
                29.96572
              ],
              [
                -95.12289,
                29.96735
              ],
              [
                -95.12351,
                29.96873
              ],
              [
                -95.12259,
                29.97078
              ],
              [
                -95.12126,
                29.97045
              ],
              [
                -95.12257,
                29.97094
              ],
              [
                -95.12174,
                29.97388
              ],
              [
                -95.11804,
                29.97436
              ],
              [
                -95.1215,
                29.9748
              ],
              [
                -95.12036,
                29.97672
              ],
              [
                -95.12013,
                29.97966
              ],
              [
                -95.11942,
                29.97964
              ],
              [
                -95.11979,
                29.98047
              ],
              [
                -95.11931,
                29.98094
              ],
              [
                -95.1171,
                29.98012
              ],
              [
                -95.1166,
                29.98072
              ],
              [
                -95.11861,
                29.9813
              ],
              [
                -95.11864,
                29.98236
              ],
              [
                -95.12072,
                29.98128
              ],
              [
                -95.12184,
                29.98209
              ],
              [
                -95.12234,
                29.98557
              ],
              [
                -95.11068,
                29.98588
              ],
              [
                -95.11028,
                29.98652
              ],
              [
                -95.10295,
                30.01932
              ],
              [
                -95.09939,
                30.01938
              ],
              [
                -95.09948,
                30.02424
              ],
              [
                -95.10176,
                30.0242
              ],
              [
                -95.10195,
                30.02825
              ],
              [
                -95.10092,
                30.02826
              ],
              [
                -95.09747,
                30.0436
              ],
              [
                -95.10163,
                30.04352
              ],
              [
                -95.10161,
                30.04295
              ],
              [
                -95.10256,
                30.04295
              ],
              [
                -95.10255,
                30.04353
              ],
              [
                -95.10803,
                30.04348
              ],
              [
                -95.10799,
                30.04112
              ],
              [
                -95.11213,
                30.04107
              ],
              [
                -95.11449,
                30.04319
              ],
              [
                -95.11681,
                30.04293
              ],
              [
                -95.1172,
                30.04543
              ],
              [
                -95.09812,
                30.04602
              ],
              [
                -95.09815,
                30.0479
              ],
              [
                -95.09341,
                30.04798
              ],
              [
                -95.09655,
                30.06038
              ],
              [
                -95.10176,
                30.0603
              ],
              [
                -95.10185,
                30.06678
              ],
              [
                -95.1103,
                30.06675
              ],
              [
                -95.10738,
                30.06025
              ],
              [
                -95.11036,
                30.06022
              ],
              [
                -95.11038,
                30.06164
              ],
              [
                -95.12157,
                30.06479
              ],
              [
                -95.1213,
                30.06689
              ],
              [
                -95.1276,
                30.06752
              ],
              [
                -95.12779,
                30.06654
              ],
              [
                -95.13849,
                30.07005
              ],
              [
                -95.13899,
                30.07117
              ],
              [
                -95.13497,
                30.07403
              ],
              [
                -95.14059,
                30.07389
              ],
              [
                -95.14032,
                30.07525
              ],
              [
                -95.1433,
                30.07862
              ],
              [
                -95.14154,
                30.07972
              ],
              [
                -95.14449,
                30.08383
              ],
              [
                -95.14712,
                30.08247
              ],
              [
                -95.14692,
                30.08358
              ],
              [
                -95.14828,
                30.08473
              ],
              [
                -95.14995,
                30.0842
              ],
              [
                -95.16295,
                30.10089
              ],
              [
                -95.16694,
                30.11036
              ],
              [
                -95.21191,
                30.07414
              ],
              [
                -95.21242,
                30.07532
              ],
              [
                -95.21406,
                30.07524
              ],
              [
                -95.21438,
                30.07682
              ],
              [
                -95.21827,
                30.07637
              ],
              [
                -95.21763,
                30.07245
              ],
              [
                -95.21487,
                30.07179
              ],
              [
                -95.21819,
                30.06911
              ],
              [
                -95.24174,
                30.06825
              ],
              [
                -95.241,
                30.07034
              ],
              [
                -95.24482,
                30.07028
              ],
              [
                -95.24563,
                30.07158
              ],
              [
                -95.26281,
                30.07141
              ],
              [
                -95.26259,
                30.06035
              ],
              [
                -95.26142,
                30.0605
              ],
              [
                -95.2614,
                30.05759
              ],
              [
                -95.26277,
                30.05762
              ],
              [
                -95.26278,
                30.06031
              ],
              [
                -95.26528,
                30.05977
              ],
              [
                -95.26424,
                30.05888
              ],
              [
                -95.26404,
                30.05169
              ],
              [
                -95.26272,
                30.05184
              ],
              [
                -95.26259,
                30.04286
              ],
              [
                -95.29392,
                30.04292
              ],
              [
                -95.29335,
                30.01451
              ],
              [
                -95.29127,
                30.01453
              ],
              [
                -95.29129,
                30.01638
              ],
              [
                -95.29333,
                30.01633
              ],
              [
                -95.29336,
                30.02118
              ],
              [
                -95.28472,
                30.02131
              ],
              [
                -95.28475,
                30.02991
              ],
              [
                -95.27202,
                30.03242
              ],
              [
                -95.26829,
                30.03169
              ],
              [
                -95.26382,
                30.03204
              ],
              [
                -95.26129,
                30.02695
              ],
              [
                -95.25821,
                30.02595
              ],
              [
                -95.25821,
                30.0239
              ],
              [
                -95.25796,
                30.02474
              ],
              [
                -95.25708,
                30.02474
              ],
              [
                -95.25628,
                30.0245
              ],
              [
                -95.25606,
                30.02327
              ],
              [
                -95.25482,
                30.02626
              ],
              [
                -95.25023,
                30.02711
              ],
              [
                -95.25022,
                30.02341
              ],
              [
                -95.24626,
                30.02223
              ],
              [
                -95.24358,
                30.01955
              ],
              [
                -95.24267,
                30.01653
              ],
              [
                -95.24287,
                30.00611
              ],
              [
                -95.23842,
                30.0036
              ],
              [
                -95.23657,
                29.99943
              ],
              [
                -95.23599,
                29.96861
              ],
              [
                -95.24223,
                29.96805
              ],
              [
                -95.2406,
                29.96539
              ],
              [
                -95.24214,
                29.96434
              ],
              [
                -95.24419,
                29.96663
              ],
              [
                -95.24424,
                29.96928
              ],
              [
                -95.24545,
                29.96926
              ],
              [
                -95.24534,
                29.96231
              ],
              [
                -95.24803,
                29.96208
              ],
              [
                -95.24483,
                29.96244
              ],
              [
                -95.23593,
                29.96858
              ],
              [
                -95.23599,
                29.97536
              ],
              [
                -95.23175,
                29.97542
              ],
              [
                -95.23182,
                29.99928
              ],
              [
                -95.21023,
                29.99932
              ],
              [
                -95.20697,
                29.99918
              ],
              [
                -95.20653,
                29.99852
              ],
              [
                -95.20337,
                29.99902
              ],
              [
                -95.20269,
                29.99797
              ],
              [
                -95.20269,
                29.99899
              ],
              [
                -95.20166,
                29.99893
              ],
              [
                -95.20165,
                29.99782
              ],
              [
                -95.20033,
                29.99778
              ],
              [
                -95.20033,
                29.99887
              ],
              [
                -95.19948,
                29.99883
              ],
              [
                -95.19949,
                29.99718
              ],
              [
                -95.1974,
                29.99731
              ],
              [
                -95.1974,
                29.99678
              ],
              [
                -95.19343,
                29.99678
              ],
              [
                -95.19344,
                29.99864
              ],
              [
                -95.19311,
                29.99678
              ],
              [
                -95.18943,
                29.99682
              ],
              [
                -95.18944,
                29.99758
              ],
              [
                -95.18817,
                29.9976
              ],
              [
                -95.18822,
                29.99857
              ],
              [
                -95.18798,
                29.9976
              ],
              [
                -95.18425,
                29.9976
              ],
              [
                -95.18436,
                29.9985
              ],
              [
                -95.18396,
                29.99761
              ],
              [
                -95.1834,
                29.99761
              ],
              [
                -95.18367,
                29.99849
              ],
              [
                -95.17843,
                29.99837
              ],
              [
                -95.17836,
                29.99339
              ],
              [
                -95.20353,
                29.98467
              ],
              [
                -95.20246,
                29.98413
              ],
              [
                -95.19387,
                29.98702
              ],
              [
                -95.19298,
                29.98667
              ],
              [
                -95.19183,
                29.98296
              ],
              [
                -95.19203,
                29.98008
              ],
              [
                -95.19555,
                29.98024
              ],
              [
                -95.19595,
                29.97938
              ],
              [
                -95.19608,
                29.98039
              ],
              [
                -95.1977,
                29.98035
              ],
              [
                -95.20535,
                29.97902
              ],
              [
                -95.20534,
                29.97802
              ],
              [
                -95.20609,
                29.97802
              ],
              [
                -95.20573,
                29.98068
              ],
              [
                -95.20686,
                29.98084
              ],
              [
                -95.2068,
                29.98155
              ],
              [
                -95.2035,
                29.98107
              ],
              [
                -95.20351,
                29.98243
              ],
              [
                -95.20643,
                29.98238
              ],
              [
                -95.20718,
                29.98069
              ],
              [
                -95.20598,
                29.98053
              ],
              [
                -95.20647,
                29.97803
              ],
              [
                -95.2135,
                29.97803
              ],
              [
                -95.21413,
                29.97941
              ],
              [
                -95.21335,
                29.97984
              ],
              [
                -95.21414,
                29.98095
              ],
              [
                -95.22995,
                29.9727
              ],
              [
                -95.23304,
                29.97055
              ],
              [
                -95.23269,
                29.96968
              ],
              [
                -95.2313,
                29.97062
              ],
              [
                -95.23176,
                29.97113
              ],
              [
                -95.22735,
                29.97381
              ],
              [
                -95.22671,
                29.97342
              ],
              [
                -95.2261,
                29.97449
              ],
              [
                -95.22593,
                29.97124
              ],
              [
                -95.22531,
                29.97491
              ],
              [
                -95.21907,
                29.97835
              ],
              [
                -95.21907,
                29.97706
              ],
              [
                -95.21676,
                29.97862
              ],
              [
                -95.21371,
                29.97775
              ],
              [
                -95.20351,
                29.97776
              ],
              [
                -95.19402,
                29.97917
              ],
              [
                -95.1934,
                29.97913
              ],
              [
                -95.19361,
                29.97762
              ],
              [
                -95.19157,
                29.97734
              ],
              [
                -95.1912,
                29.97828
              ],
              [
                -95.18728,
                29.97676
              ],
              [
                -95.18671,
                29.97858
              ],
              [
                -95.17814,
                29.98065
              ],
              [
                -95.17814,
                29.9814
              ]
            ],
            [
              [
                -95.15548,
                29.9776
              ],
              [
                -95.15516,
                29.9776
              ],
              [
                -95.15514,
                29.97613
              ],
              [
                -95.15548,
                29.9776
              ]
            ],
            [
              [
                -95.1874,
                29.92469
              ],
              [
                -95.18706,
                29.92446
              ],
              [
                -95.19245,
                29.92405
              ],
              [
                -95.1874,
                29.92469
              ]
            ],
            [
              [
                -95.17903,
                29.92729
              ],
              [
                -95.17796,
                29.92786
              ],
              [
                -95.18189,
                29.92512
              ],
              [
                -95.18676,
                29.92445
              ],
              [
                -95.1821,
                29.92543
              ],
              [
                -95.17903,
                29.92729
              ]
            ],
            [
              [
                -95.24676,
                30.05188
              ],
              [
                -95.24757,
                30.05205
              ],
              [
                -95.24785,
                30.05411
              ],
              [
                -95.24689,
                30.05413
              ],
              [
                -95.24629,
                30.05576
              ],
              [
                -95.24984,
                30.05565
              ],
              [
                -95.24986,
                30.0576
              ],
              [
                -95.24539,
                30.05826
              ],
              [
                -95.2423,
                30.06678
              ],
              [
                -95.23289,
                30.06694
              ],
              [
                -95.23297,
                30.06835
              ],
              [
                -95.22276,
                30.0684
              ],
              [
                -95.22275,
                30.06546
              ],
              [
                -95.22727,
                30.06176
              ],
              [
                -95.22728,
                30.05228
              ],
              [
                -95.23916,
                30.05207
              ],
              [
                -95.23917,
                30.05465
              ],
              [
                -95.24585,
                30.05458
              ],
              [
                -95.24676,
                30.05188
              ]
            ],
            [
              [
                -95.15098,
                30.01916
              ],
              [
                -95.14875,
                30.01802
              ],
              [
                -95.14835,
                30.0175
              ],
              [
                -95.14903,
                30.01746
              ],
              [
                -95.14447,
                30.01311
              ],
              [
                -95.14262,
                30.00948
              ],
              [
                -95.15252,
                30.00392
              ],
              [
                -95.15355,
                30.00451
              ],
              [
                -95.15457,
                30.0039
              ],
              [
                -95.15358,
                30.00327
              ],
              [
                -95.1556,
                30.00206
              ],
              [
                -95.15421,
                30.00208
              ],
              [
                -95.15407,
                29.99995
              ],
              [
                -95.15483,
                29.99996
              ],
              [
                -95.15583,
                30.0016
              ],
              [
                -95.15686,
                30.00098
              ],
              [
                -95.15767,
                30.00202
              ],
              [
                -95.1735,
                30.00182
              ],
              [
                -95.17365,
                29.99989
              ],
              [
                -95.17544,
                30.00043
              ],
              [
                -95.1755,
                29.9986
              ],
              [
                -95.18389,
                29.99874
              ],
              [
                -95.18436,
                30.00075
              ],
              [
                -95.18605,
                30.00075
              ],
              [
                -95.18604,
                29.99993
              ],
              [
                -95.19318,
                29.99992
              ],
              [
                -95.19346,
                30.00683
              ],
              [
                -95.183,
                30.00754
              ],
              [
                -95.17831,
                30.01084
              ],
              [
                -95.17976,
                30.01221
              ],
              [
                -95.18154,
                30.01094
              ],
              [
                -95.18012,
                30.00947
              ],
              [
                -95.18337,
                30.00772
              ],
              [
                -95.19345,
                30.00711
              ],
              [
                -95.19404,
                30.01268
              ],
              [
                -95.19397,
                29.99993
              ],
              [
                -95.19707,
                29.99982
              ],
              [
                -95.19696,
                29.99901
              ],
              [
                -95.20361,
                29.9993
              ],
              [
                -95.20362,
                29.99999
              ],
              [
                -95.20652,
                29.99943
              ],
              [
                -95.23187,
                29.99955
              ],
              [
                -95.23191,
                30.00529
              ],
              [
                -95.20365,
                30.00809
              ],
              [
                -95.20378,
                30.01913
              ],
              [
                -95.20182,
                30.01438
              ],
              [
                -95.19756,
                30.01316
              ],
              [
                -95.19756,
                30.01425
              ],
              [
                -95.19304,
                30.01792
              ],
              [
                -95.18627,
                30.0185
              ],
              [
                -95.18032,
                30.02071
              ],
              [
                -95.17609,
                30.01866
              ],
              [
                -95.17197,
                30.01921
              ],
              [
                -95.16837,
                30.02131
              ],
              [
                -95.16659,
                30.02137
              ],
              [
                -95.16064,
                30.02406
              ],
              [
                -95.16061,
                30.02568
              ],
              [
                -95.15859,
                30.02766
              ],
              [
                -95.157,
                30.02888
              ],
              [
                -95.15362,
                30.02974
              ],
              [
                -95.15324,
                30.02807
              ],
              [
                -95.15623,
                30.02538
              ],
              [
                -95.15621,
                30.02216
              ],
              [
                -95.15911,
                30.02004
              ],
              [
                -95.15255,
                30.0185
              ],
              [
                -95.15098,
                30.01916
              ]
            ]
          ],
          [
            [
              [
                -95.17108,
                29.82836
              ],
              [
                -95.17307,
                29.82314
              ],
              [
                -95.17258,
                29.82295
              ],
              [
                -95.17196,
                29.82466
              ],
              [
                -95.171,
                29.82467
              ],
              [
                -95.17014,
                29.82297
              ],
              [
                -95.16841,
                29.82299
              ],
              [
                -95.16552,
                29.81749
              ],
              [
                -95.16754,
                29.81748
              ],
              [
                -95.16746,
                29.81337
              ],
              [
                -95.16686,
                29.81338
              ],
              [
                -95.16746,
                29.8132
              ],
              [
                -95.16734,
                29.8086
              ],
              [
                -95.16934,
                29.8081
              ],
              [
                -95.16953,
                29.80727
              ],
              [
                -95.16994,
                29.80867
              ],
              [
                -95.17329,
                29.80785
              ],
              [
                -95.1731,
                29.80624
              ],
              [
                -95.16961,
                29.80701
              ],
              [
                -95.1696,
                29.8064
              ],
              [
                -95.1661,
                29.80616
              ],
              [
                -95.16605,
                29.80507
              ],
              [
                -95.16388,
                29.80519
              ],
              [
                -95.16325,
                29.79065
              ],
              [
                -95.17103,
                29.79053
              ],
              [
                -95.17712,
                29.79204
              ],
              [
                -95.18185,
                29.79203
              ],
              [
                -95.18254,
                29.79361
              ],
              [
                -95.18529,
                29.79553
              ],
              [
                -95.18246,
                29.7998
              ],
              [
                -95.18403,
                29.79821
              ],
              [
                -95.18499,
                29.79882
              ],
              [
                -95.17918,
                29.80594
              ],
              [
                -95.17307,
                29.82306
              ],
              [
                -95.17947,
                29.8063
              ],
              [
                -95.18248,
                29.80621
              ],
              [
                -95.18253,
                29.80743
              ],
              [
                -95.18478,
                29.8074
              ],
              [
                -95.18479,
                29.80608
              ],
              [
                -95.18826,
                29.80575
              ],
              [
                -95.18831,
                29.80507
              ],
              [
                -95.18572,
                29.80506
              ],
              [
                -95.18497,
                29.8058
              ],
              [
                -95.18455,
                29.80339
              ],
              [
                -95.18247,
                29.80352
              ],
              [
                -95.18246,
                29.80252
              ],
              [
                -95.19429,
                29.78831
              ],
              [
                -95.19617,
                29.78827
              ],
              [
                -95.19819,
                29.78615
              ],
              [
                -95.2005,
                29.78617
              ],
              [
                -95.20193,
                29.78518
              ],
              [
                -95.20325,
                29.78585
              ],
              [
                -95.20205,
                29.78903
              ],
              [
                -95.19967,
                29.78891
              ],
              [
                -95.19988,
                29.79079
              ],
              [
                -95.19774,
                29.79165
              ],
              [
                -95.20589,
                29.79221
              ],
              [
                -95.2054,
                29.79144
              ],
              [
                -95.20338,
                29.79143
              ],
              [
                -95.20338,
                29.78999
              ],
              [
                -95.20235,
                29.79
              ],
              [
                -95.20235,
                29.78903
              ],
              [
                -95.20251,
                29.78789
              ],
              [
                -95.20356,
                29.78785
              ],
              [
                -95.2039,
                29.78691
              ],
              [
                -95.2032,
                29.78641
              ],
              [
                -95.20507,
                29.78424
              ],
              [
                -95.20672,
                29.7798
              ],
              [
                -95.20592,
                29.77959
              ],
              [
                -95.20416,
                29.78222
              ],
              [
                -95.20307,
                29.78148
              ],
              [
                -95.20475,
                29.7783
              ],
              [
                -95.20623,
                29.77837
              ],
              [
                -95.20606,
                29.77554
              ],
              [
                -95.20136,
                29.77501
              ],
              [
                -95.19852,
                29.77675
              ],
              [
                -95.19674,
                29.77664
              ],
              [
                -95.19516,
                29.77452
              ],
              [
                -95.19703,
                29.77154
              ],
              [
                -95.21968,
                29.77045
              ],
              [
                -95.22798,
                29.77212
              ],
              [
                -95.22716,
                29.76917
              ],
              [
                -95.22526,
                29.7695
              ],
              [
                -95.2251,
                29.7687
              ],
              [
                -95.22359,
                29.76835
              ],
              [
                -95.22401,
                29.76699
              ],
              [
                -95.22044,
                29.76602
              ],
              [
                -95.22156,
                29.76455
              ],
              [
                -95.22415,
                29.76555
              ],
              [
                -95.22394,
                29.75949
              ],
              [
                -95.21184,
                29.7598
              ],
              [
                -95.2119,
                29.76166
              ],
              [
                -95.21285,
                29.76191
              ],
              [
                -95.20665,
                29.762
              ],
              [
                -95.21083,
                29.75781
              ],
              [
                -95.21162,
                29.75779
              ],
              [
                -95.21183,
                29.75954
              ],
              [
                -95.21103,
                29.74063
              ],
              [
                -95.2157,
                29.73258
              ],
              [
                -95.21825,
                29.73131
              ],
              [
                -95.22381,
                29.7324
              ],
              [
                -95.23012,
                29.73231
              ],
              [
                -95.24004,
                29.72796
              ],
              [
                -95.23996,
                29.71869
              ],
              [
                -95.24392,
                29.71787
              ],
              [
                -95.24873,
                29.71326
              ],
              [
                -95.2553,
                29.71332
              ],
              [
                -95.25599,
                29.70871
              ],
              [
                -95.25963,
                29.70588
              ],
              [
                -95.26435,
                29.70391
              ],
              [
                -95.26527,
                29.70198
              ],
              [
                -95.26217,
                29.69798
              ],
              [
                -95.26262,
                29.69628
              ],
              [
                -95.2596,
                29.69436
              ],
              [
                -95.2555,
                29.69374
              ],
              [
                -95.25673,
                29.69173
              ],
              [
                -95.25599,
                29.68958
              ],
              [
                -95.25262,
                29.68876
              ],
              [
                -95.25126,
                29.68734
              ],
              [
                -95.24814,
                29.6882
              ],
              [
                -95.24675,
                29.68608
              ],
              [
                -95.25374,
                29.68219
              ],
              [
                -95.25588,
                29.67452
              ],
              [
                -95.25916,
                29.67138
              ],
              [
                -95.25902,
                29.67047
              ],
              [
                -95.2622,
                29.6693
              ],
              [
                -95.26291,
                29.67
              ],
              [
                -95.24459,
                29.64203
              ],
              [
                -95.23232,
                29.63069
              ],
              [
                -95.23841,
                29.63695
              ],
              [
                -95.23282,
                29.63771
              ],
              [
                -95.23276,
                29.63486
              ],
              [
                -95.22142,
                29.63484
              ],
              [
                -95.22117,
                29.62976
              ],
              [
                -95.21103,
                29.63699
              ],
              [
                -95.19801,
                29.62301
              ],
              [
                -95.19974,
                29.62292
              ],
              [
                -95.19966,
                29.62142
              ],
              [
                -95.2008,
                29.62106
              ],
              [
                -95.21014,
                29.62029
              ],
              [
                -95.21613,
                29.616
              ],
              [
                -95.18094,
                29.58347
              ],
              [
                -95.15712,
                29.55611
              ],
              [
                -95.16305,
                29.5617
              ],
              [
                -95.17364,
                29.55192
              ],
              [
                -95.16202,
                29.54229
              ],
              [
                -95.1649,
                29.5396
              ],
              [
                -95.15929,
                29.53446
              ],
              [
                -95.15976,
                29.53404
              ],
              [
                -95.16269,
                29.53651
              ],
              [
                -95.16345,
                29.53581
              ],
              [
                -95.15996,
                29.53387
              ],
              [
                -95.16467,
                29.5295
              ],
              [
                -95.16285,
                29.52912
              ],
              [
                -95.16223,
                29.52417
              ],
              [
                -95.16597,
                29.52349
              ],
              [
                -95.16445,
                29.5222
              ],
              [
                -95.15683,
                29.52304
              ],
              [
                -95.15702,
                29.52438
              ],
              [
                -95.16188,
                29.52387
              ],
              [
                -95.16239,
                29.53015
              ],
              [
                -95.15884,
                29.53453
              ],
              [
                -95.15413,
                29.53059
              ],
              [
                -95.15395,
                29.52334
              ],
              [
                -95.14291,
                29.52453
              ],
              [
                -95.14421,
                29.52593
              ],
              [
                -95.14092,
                29.52829
              ],
              [
                -95.14302,
                29.53081
              ],
              [
                -95.14399,
                29.53358
              ],
              [
                -95.14376,
                29.53657
              ],
              [
                -95.14236,
                29.5387
              ],
              [
                -95.14498,
                29.53881
              ],
              [
                -95.14404,
                29.53953
              ],
              [
                -95.14381,
                29.54182
              ],
              [
                -95.14604,
                29.5444
              ],
              [
                -95.14534,
                29.5449
              ],
              [
                -95.14245,
                29.54205
              ],
              [
                -95.14027,
                29.54201
              ],
              [
                -95.13344,
                29.55478
              ],
              [
                -95.12823,
                29.54921
              ],
              [
                -95.12522,
                29.55047
              ],
              [
                -95.1125,
                29.55283
              ],
              [
                -95.1086,
                29.55165
              ],
              [
                -95.10944,
                29.5511
              ],
              [
                -95.10907,
                29.55021
              ],
              [
                -95.1064,
                29.55065
              ],
              [
                -95.10263,
                29.54736
              ],
              [
                -95.07825,
                29.55532
              ],
              [
                -95.07513,
                29.55854
              ],
              [
                -95.07845,
                29.56108
              ],
              [
                -95.08111,
                29.57139
              ],
              [
                -95.09399,
                29.57669
              ],
              [
                -95.09326,
                29.57809
              ],
              [
                -95.09579,
                29.57929
              ],
              [
                -95.10147,
                29.58057
              ],
              [
                -95.10186,
                29.58239
              ],
              [
                -95.10322,
                29.58357
              ],
              [
                -95.10212,
                29.58618
              ],
              [
                -95.10217,
                29.58962
              ],
              [
                -95.10546,
                29.59351
              ],
              [
                -95.10715,
                29.59783
              ],
              [
                -95.10795,
                29.60797
              ],
              [
                -95.11331,
                29.60771
              ],
              [
                -95.11378,
                29.6224
              ],
              [
                -95.11786,
                29.62382
              ],
              [
                -95.1208,
                29.6264
              ],
              [
                -95.12238,
                29.62976
              ],
              [
                -95.12238,
                29.63347
              ],
              [
                -95.13916,
                29.6332
              ],
              [
                -95.14277,
                29.63122
              ],
              [
                -95.19079,
                29.63026
              ],
              [
                -95.19082,
                29.63141
              ],
              [
                -95.19296,
                29.63137
              ],
              [
                -95.19275,
                29.63451
              ],
              [
                -95.19991,
                29.64401
              ],
              [
                -95.20799,
                29.64385
              ],
              [
                -95.20814,
                29.65107
              ],
              [
                -95.21657,
                29.651
              ],
              [
                -95.21652,
                29.65278
              ],
              [
                -95.2493,
                29.65228
              ],
              [
                -95.24966,
                29.67049
              ],
              [
                -95.22826,
                29.66988
              ],
              [
                -95.22843,
                29.67585
              ],
              [
                -95.22456,
                29.67596
              ],
              [
                -95.23482,
                29.69058
              ],
              [
                -95.22824,
                29.69065
              ],
              [
                -95.22829,
                29.70992
              ],
              [
                -95.22622,
                29.71012
              ],
              [
                -95.22636,
                29.71902
              ],
              [
                -95.21863,
                29.71751
              ],
              [
                -95.21097,
                29.71886
              ],
              [
                -95.20354,
                29.72366
              ],
              [
                -95.19941,
                29.73183
              ],
              [
                -95.19683,
                29.73477
              ],
              [
                -95.18522,
                29.73873
              ],
              [
                -95.18075,
                29.73844
              ],
              [
                -95.17591,
                29.73968
              ],
              [
                -95.17204,
                29.7399
              ],
              [
                -95.1651,
                29.73639
              ],
              [
                -95.1598,
                29.73185
              ],
              [
                -95.15514,
                29.72966
              ],
              [
                -95.15037,
                29.72892
              ],
              [
                -95.14027,
                29.7294
              ],
              [
                -95.13137,
                29.727
              ],
              [
                -95.12303,
                29.72764
              ],
              [
                -95.09957,
                29.73757
              ],
              [
                -95.09659,
                29.74034
              ],
              [
                -95.09462,
                29.74376
              ],
              [
                -95.08742,
                29.74871
              ],
              [
                -95.0837,
                29.75575
              ],
              [
                -95.08224,
                29.75648
              ],
              [
                -95.07448,
                29.7523
              ],
              [
                -95.07214,
                29.74908
              ],
              [
                -95.07075,
                29.74481
              ],
              [
                -95.06682,
                29.7379
              ],
              [
                -95.0589,
                29.73025
              ],
              [
                -95.04742,
                29.72509
              ],
              [
                -95.03277,
                29.72318
              ],
              [
                -95.03025,
                29.72195
              ],
              [
                -95.02905,
                29.71966
              ],
              [
                -95.02954,
                29.71342
              ],
              [
                -95.02868,
                29.70786
              ],
              [
                -95.02695,
                29.7039
              ],
              [
                -95.02421,
                29.70031
              ],
              [
                -95.01264,
                29.70952
              ],
              [
                -95.0137,
                29.71282
              ],
              [
                -95.01357,
                29.72581
              ],
              [
                -95.01612,
                29.73001
              ],
              [
                -95.02299,
                29.73506
              ],
              [
                -95.03018,
                29.73684
              ],
              [
                -95.04264,
                29.73812
              ],
              [
                -95.04934,
                29.74094
              ],
              [
                -95.05415,
                29.74563
              ],
              [
                -95.058,
                29.75527
              ],
              [
                -95.06282,
                29.76137
              ],
              [
                -95.07268,
                29.76789
              ],
              [
                -95.07867,
                29.76988
              ],
              [
                -95.08588,
                29.76978
              ],
              [
                -95.09216,
                29.76741
              ],
              [
                -95.09607,
                29.76425
              ],
              [
                -95.09963,
                29.75709
              ],
              [
                -95.10479,
                29.75416
              ],
              [
                -95.1105,
                29.74723
              ],
              [
                -95.11822,
                29.74536
              ],
              [
                -95.12828,
                29.741
              ],
              [
                -95.13307,
                29.74116
              ],
              [
                -95.14107,
                29.74286
              ],
              [
                -95.15025,
                29.74319
              ],
              [
                -95.15232,
                29.74531
              ],
              [
                -95.16134,
                29.75121
              ],
              [
                -95.16656,
                29.753
              ],
              [
                -95.17263,
                29.75378
              ],
              [
                -95.18156,
                29.75269
              ],
              [
                -95.18115,
                29.75235
              ],
              [
                -95.18259,
                29.75104
              ],
              [
                -95.17907,
                29.74703
              ],
              [
                -95.18523,
                29.75256
              ],
              [
                -95.18776,
                29.75242
              ],
              [
                -95.20283,
                29.74743
              ],
              [
                -95.20965,
                29.74218
              ],
              [
                -95.21019,
                29.75771
              ],
              [
                -95.1914,
                29.75746
              ],
              [
                -95.19217,
                29.75961
              ],
              [
                -95.18871,
                29.76423
              ],
              [
                -95.18905,
                29.76709
              ],
              [
                -95.18224,
                29.76721
              ],
              [
                -95.18221,
                29.77006
              ],
              [
                -95.18137,
                29.77
              ],
              [
                -95.18136,
                29.76723
              ],
              [
                -95.16726,
                29.76766
              ],
              [
                -95.16029,
                29.77132
              ],
              [
                -95.14762,
                29.77294
              ],
              [
                -95.12308,
                29.77887
              ],
              [
                -95.10681,
                29.78548
              ],
              [
                -95.09524,
                29.78926
              ],
              [
                -95.08941,
                29.79101
              ],
              [
                -95.08259,
                29.79185
              ],
              [
                -95.07099,
                29.79577
              ],
              [
                -95.06774,
                29.79569
              ],
              [
                -95.06105,
                29.79289
              ],
              [
                -95.06773,
                29.79572
              ],
              [
                -95.071,
                29.7958
              ],
              [
                -95.0826,
                29.79187
              ],
              [
                -95.08942,
                29.79103
              ],
              [
                -95.09525,
                29.78929
              ],
              [
                -95.10682,
                29.7855
              ],
              [
                -95.12309,
                29.77889
              ],
              [
                -95.15279,
                29.77222
              ],
              [
                -95.15691,
                29.77634
              ],
              [
                -95.15761,
                29.778
              ],
              [
                -95.1568,
                29.77755
              ],
              [
                -95.15522,
                29.78027
              ],
              [
                -95.158,
                29.78083
              ],
              [
                -95.15804,
                29.7823
              ],
              [
                -95.15244,
                29.78048
              ],
              [
                -95.15215,
                29.78111
              ],
              [
                -95.15769,
                29.78247
              ],
              [
                -95.16006,
                29.78901
              ],
              [
                -95.14955,
                29.78864
              ],
              [
                -95.14983,
                29.78631
              ],
              [
                -95.14933,
                29.78632
              ],
              [
                -95.14936,
                29.78864
              ],
              [
                -95.14381,
                29.7887
              ],
              [
                -95.1436,
                29.78751
              ],
              [
                -95.14362,
                29.7887
              ],
              [
                -95.13441,
                29.7888
              ],
              [
                -95.13425,
                29.78796
              ],
              [
                -95.13422,
                29.78881
              ],
              [
                -95.13287,
                29.7885
              ],
              [
                -95.13255,
                29.7894
              ],
              [
                -95.15271,
                29.78887
              ],
              [
                -95.15727,
                29.79023
              ],
              [
                -95.15688,
                29.79089
              ],
              [
                -95.15928,
                29.79072
              ],
              [
                -95.16058,
                29.79365
              ],
              [
                -95.16184,
                29.79337
              ],
              [
                -95.16013,
                29.79445
              ],
              [
                -95.16211,
                29.79428
              ],
              [
                -95.16261,
                29.79635
              ],
              [
                -95.16167,
                29.79646
              ],
              [
                -95.16168,
                29.79763
              ],
              [
                -95.16277,
                29.7978
              ],
              [
                -95.16168,
                29.79779
              ],
              [
                -95.16197,
                29.80166
              ],
              [
                -95.16171,
                29.80286
              ],
              [
                -95.16088,
                29.80287
              ],
              [
                -95.16139,
                29.80487
              ],
              [
                -95.162,
                29.80488
              ],
              [
                -95.162,
                29.8077
              ],
              [
                -95.16084,
                29.8083
              ],
              [
                -95.16126,
                29.80913
              ],
              [
                -95.15365,
                29.81123
              ],
              [
                -95.15363,
                29.81028
              ],
              [
                -95.15237,
                29.81031
              ],
              [
                -95.1524,
                29.81104
              ],
              [
                -95.1506,
                29.81134
              ],
              [
                -95.15156,
                29.81193
              ],
              [
                -95.14435,
                29.81474
              ],
              [
                -95.14292,
                29.81401
              ],
              [
                -95.14254,
                29.79804
              ],
              [
                -95.14063,
                29.79253
              ],
              [
                -95.13915,
                29.79254
              ],
              [
                -95.13922,
                29.79498
              ],
              [
                -95.1412,
                29.79494
              ],
              [
                -95.14154,
                29.79573
              ],
              [
                -95.1409,
                29.79626
              ],
              [
                -95.1418,
                29.79669
              ],
              [
                -95.14258,
                29.81355
              ],
              [
                -95.13975,
                29.81295
              ],
              [
                -95.13985,
                29.81632
              ],
              [
                -95.14958,
                29.81322
              ],
              [
                -95.15417,
                29.81324
              ],
              [
                -95.15413,
                29.81139
              ],
              [
                -95.15469,
                29.81122
              ],
              [
                -95.15477,
                29.81205
              ],
              [
                -95.15765,
                29.81036
              ],
              [
                -95.15781,
                29.81144
              ],
              [
                -95.15886,
                29.81092
              ],
              [
                -95.16103,
                29.8134
              ],
              [
                -95.16323,
                29.81207
              ],
              [
                -95.16462,
                29.81779
              ],
              [
                -95.16692,
                29.823
              ],
              [
                -95.17108,
                29.82836
              ]
            ],
            [
              [
                -95.0792,
                29.76205
              ],
              [
                -95.07794,
                29.76129
              ],
              [
                -95.07912,
                29.75994
              ],
              [
                -95.08032,
                29.76077
              ],
              [
                -95.0792,
                29.76205
              ]
            ],
            [
              [
                -95.08738,
                29.75489
              ],
              [
                -95.08921,
                29.75621
              ],
              [
                -95.0893,
                29.75757
              ],
              [
                -95.0866,
                29.75562
              ],
              [
                -95.08738,
                29.75489
              ]
            ],
            [
              [
                -95.0775,
                29.76301
              ],
              [
                -95.07824,
                29.7639
              ],
              [
                -95.07704,
                29.76455
              ],
              [
                -95.07718,
                29.76522
              ],
              [
                -95.07556,
                29.76552
              ],
              [
                -95.07591,
                29.76316
              ],
              [
                -95.0775,
                29.76301
              ]
            ],
            [
              [
                -95.20594,
                29.76202
              ],
              [
                -95.20368,
                29.76154
              ],
              [
                -95.20067,
                29.75903
              ],
              [
                -95.20181,
                29.75802
              ],
              [
                -95.2021,
                29.75996
              ],
              [
                -95.20445,
                29.76056
              ],
              [
                -95.20751,
                29.75786
              ],
              [
                -95.2103,
                29.75782
              ],
              [
                -95.20594,
                29.76202
              ]
            ],
            [
              [
                -95.1644,
                29.79035
              ],
              [
                -95.16324,
                29.79037
              ],
              [
                -95.16327,
                29.78904
              ],
              [
                -95.16198,
                29.78907
              ],
              [
                -95.16197,
                29.78844
              ],
              [
                -95.16981,
                29.78826
              ],
              [
                -95.17,
                29.78883
              ],
              [
                -95.17031,
                29.78828
              ],
              [
                -95.17784,
                29.78811
              ],
              [
                -95.17784,
                29.78873
              ],
              [
                -95.17878,
                29.78871
              ],
              [
                -95.17919,
                29.78659
              ],
              [
                -95.17817,
                29.77695
              ],
              [
                -95.17903,
                29.77398
              ],
              [
                -95.17821,
                29.77398
              ],
              [
                -95.17803,
                29.77159
              ],
              [
                -95.1823,
                29.77151
              ],
              [
                -95.18273,
                29.78865
              ],
              [
                -95.19355,
                29.78842
              ],
              [
                -95.18883,
                29.79414
              ],
              [
                -95.18658,
                29.79342
              ],
              [
                -95.1869,
                29.79167
              ],
              [
                -95.17783,
                29.79183
              ],
              [
                -95.17126,
                29.79026
              ],
              [
                -95.1644,
                29.79035
              ]
            ],
            [
              [
                -95.16134,
                29.78908
              ],
              [
                -95.15905,
                29.78344
              ],
              [
                -95.15892,
                29.77826
              ],
              [
                -95.15703,
                29.77318
              ],
              [
                -95.15738,
                29.77165
              ],
              [
                -95.15782,
                29.77222
              ],
              [
                -95.15966,
                29.77135
              ],
              [
                -95.16089,
                29.77134
              ],
              [
                -95.1609,
                29.77197
              ],
              [
                -95.17745,
                29.77161
              ],
              [
                -95.17774,
                29.78797
              ],
              [
                -95.16164,
                29.78829
              ],
              [
                -95.1613,
                29.78771
              ],
              [
                -95.16134,
                29.78908
              ]
            ]
          ],
          [
            [
              [
                -95.28453,
                30.00665
              ],
              [
                -95.28687,
                30.00684
              ],
              [
                -95.28684,
                30.00524
              ],
              [
                -95.29327,
                30.00524
              ],
              [
                -95.29383,
                30.0061
              ],
              [
                -95.29582,
                30.00609
              ],
              [
                -95.29581,
                30.0054
              ],
              [
                -95.2845,
                30.00499
              ],
              [
                -95.28453,
                30.00665
              ]
            ],
            [
              [
                -95.29455,
                30.00538
              ],
              [
                -95.29508,
                30.00519
              ],
              [
                -95.29509,
                30.00552
              ],
              [
                -95.29455,
                30.00538
              ]
            ]
          ],
          [
            [
              [
                -95.17925,
                29.54547
              ],
              [
                -95.18039,
                29.54643
              ],
              [
                -95.18114,
                29.54572
              ],
              [
                -95.17975,
                29.5445
              ],
              [
                -95.17925,
                29.54547
              ]
            ]
          ],
          [
            [
              [
                -95.14235,
                29.94812
              ],
              [
                -95.13912,
                29.94795
              ],
              [
                -95.13915,
                29.94913
              ],
              [
                -95.14044,
                29.94817
              ],
              [
                -95.14235,
                29.94812
              ]
            ]
          ]
        ]
      },
      "properties": {
        "council_district": "E",
        "district_member": "FRED FLICKINGER",
        "baseline_request_count": 4797,
        "baseline_unresolved_count": 647,
        "baseline_long_resolution_count": 1077,
        "baseline_repeat_clustered_count": 1491,
        "baseline_median_resolution_days": 4.562494212962963,
        "baseline_records_with_coordinates": 4797,
        "baseline_district_area_sq_mi": 129.7635477981261,
        "baseline_district_member": "FRED FLICKINGER",
        "baseline_tract_centroid_count": null,
        "baseline_estimated_population": null,
        "baseline_estimated_households": null,
        "baseline_poverty_count": null,
        "baseline_poverty_universe": null,
        "baseline_poverty_rate": null,
        "baseline_vehicle_universe": null,
        "baseline_no_vehicle_households": null,
        "baseline_no_vehicle_household_share": null,
        "baseline_median_household_income_weighted": null,
        "baseline_unresolved_share": 0.1348759641442568,
        "baseline_long_resolution_share": 0.2245153220762976,
        "baseline_repeat_cluster_share": 0.3108192620387742,
        "baseline_requests_per_sq_mile": 36.96723834541516,
        "baseline_requests_per_10k_residents": null,
        "baseline_requests_per_10k_households": null,
        "baseline_resident_rate_percentile": 9.090909090909092,
        "baseline_household_rate_percentile": 9.090909090909092,
        "baseline_median_resolution_percentile": 72.72727272727273,
        "baseline_unresolved_share_percentile": 18.181818181818183,
        "baseline_long_resolution_share_percentile": 81.81818181818183,
        "baseline_repeat_cluster_share_percentile": 9.090909090909092,
        "baseline_resident_request_rate_component": 2.272727272727273,
        "baseline_household_request_rate_component": 1.3636363636363638,
        "baseline_median_resolution_days_component": 14.545454545454549,
        "baseline_unresolved_share_component": 2.7272727272727275,
        "baseline_long_resolution_share_component": 8.181818181818183,
        "baseline_repeat_cluster_share_component": 1.3636363636363638,
        "baseline_service_burden_score": 30.454545454545457,
        "baseline_service_burden_class": "Medium",
        "qa_request_count": 4797,
        "qa_records_with_coordinates": 4797,
        "qa_spatially_assigned_records": 1792,
        "qa_coordinate_completeness": 1.0,
        "qa_spatial_assignment_share": 0.3735668125912028,
        "qa_source_spatial_district_agreement": 0.9966517857142856,
        "non_solid_waste_score": 42.27272727272729,
        "non_solid_waste_class": "Medium",
        "non_solid_waste_request_count": 2392,
        "category_balanced_density_score": 14.935064935064934,
        "category_balanced_class": "Low"
      }
    }
  ],
  "metadata": {
    "description": "Council district polygons with spatial assignment share below 90 percent.",
    "review_threshold": 0.9
  }
}